1 25118U 97084G   15002.64871868  .00000665  00000-0  26776-3 0  9999,2 25118 045.0162 158.9144 0003939 144.5756 277.0823 14.37411240891256
1 25118U 97084G   15003.91527564  .00000774  00000-0  30375-3 0  9992,2 25118 045.0164 152.9166 0004020 151.2559 350.7861 14.37413274891434
1 25118U 97084G   15005.49165014  .00000929  00000-0  35495-3 0  9995,2 25118 045.0165 145.4517 0004137 160.2156 226.9886 14.37417949891652
1 25118U 97084G   15007.51056456  .00001085  00000-0  40651-3 0  9993,2 25118 045.0165 135.8913 0004278 171.1535 233.4770 14.37424103891940
1 25118U 97084G   15008.85031146  .00001176  00000-0  43681-3 0  9997,2 25118 045.0166 129.5469 0004364 177.7714 326.4047 14.37430268892146
1 25118U 97084G   15010.50149516  .00001139  00000-0  42447-3 0  9991,2 25118 045.0168 121.7278 0004500 185.4734 231.4486 14.37435092892388
1 25118U 97084G   15011.70172920  .00001151  00000-0  42854-3 0  9995,2 25118 045.0168 116.0440 0004582 191.4652 322.4103 14.37439559892550
1 25118U 97084G   15012.74685293  .00001047  00000-0  39398-3 0  9995,2 25118 045.0169 111.0948 0004649 196.3732 331.0319 14.37443077892708
1 25118U 97084G   15014.24907054  .00001133  00000-0  42247-3 0  9997,2 25118 045.0170 103.9807 0004741 202.9967 185.6138 14.37448607892910
1 25118U 97084G   15014.69202964  .00001176  00000-0  43637-3 0  9995,2 25118 045.0172 101.8831 0004828 206.4287 316.7151 14.37478695892985
1 25118U 97084G   15015.63355602  .00001966  00000-0  64976-3 0  9994,2 25118 045.0171 097.4205 0004616 209.7371 150.3687 14.37457391893127
1 25118U 97084G   15016.26712277  .00001314  00000-0  48183-3 0  9998,2 25118 045.0172 094.4233 0004909 212.6198 189.4175 14.37483244893201
1 25118U 97084G   15017.80673825  .00000734  00000-0  29001-3 0  9997,2 25118 045.0172 087.1317 0004986 219.7628 237.4209 14.37487089893432
1 25118U 97084G   15019.39933933  .00000955  00000-0  36302-3 0  9999,2 25118 045.0172 079.5890 0005033 226.9556 199.8589 14.37489825893664
1 25118U 97084G   15020.79722407  .00000575  00000-0  23736-3 0  9992,2 25118 045.0173 072.9685 0005072 233.5182 234.3130 14.37492773893861
1 25118U 97084G   15022.31647436  .00000836  00000-0  32369-3 0  9992,2 25118 045.0174 065.7730 0005091 240.3332 177.2032 14.37496465894080
1 25118U 97084G   15023.51554712  .00000704  00000-0  27986-3 0  9992,2 25118 045.0175 060.0941 0005098 245.4200 263.3188 14.37498160894252
1 25118U 97084G   15024.55566885  .00000747  00000-0  29407-3 0  9998,2 25118 045.0175 055.1680 0005096 249.9492 246.6339 14.37498617894403
1 25118U 97084G   15025.65891302  .00000644  00000-0  26001-3 0  9998,2 25118 045.0176 049.9429 0005083 254.8355 196.5681 14.37500708894560
1 25118U 97084G   15027.17836215  .00000763  00000-0  29954-3 0  9991,2 25118 045.0178 042.7466 0005048 261.3144 140.8671 14.37504936894786
1 25118U 97084G   15029.48986362  .00001237  00000-0  45608-3 0  9997,2 25118 045.0179 031.7991 0004975 271.2734 224.5756 14.37510021895115
1 25118U 97084G   15030.59379728  .00001160  00000-0  43063-3 0  9991,2 25118 045.0180 026.5708 0004926 276.1474 178.1371 14.37513952895276
1 25118U 97084G   15032.18643096  .00001194  00000-0  44183-3 0  9991,2 25118 045.0181 019.0280 0004820 283.7567 140.4763 14.37520358895500
1 25118U 97084G   15034.13116284  .00001094  00000-0  40870-3 0  9990,2 25118 045.0181 009.8175 0004704 292.0998 126.0203 14.37528721895783
1 25118U 97084G   15035.33022003  .00001138  00000-0  42328-3 0  9997,2 25118 045.0181 004.1387 0004620 297.4026 211.9724 14.37532872895957
1 25118U 97084G   15036.50104323  .00001293  00000-0  47447-3 0  9992,2 25118 045.0180 358.5934 0004525 302.8657 151.5280 14.37537013896123
1 25118U 97084G   15037.87852382  .00001140  00000-0  42398-3 0  9999,2 25118 045.0179 352.0693 0004392 309.6961 080.2528 14.37541744896328
1 25118U 97084G   15039.06567374  .00001104  00000-0  41202-3 0  9999,2 25118 045.0179 346.4467 0004289 315.2718 104.3060 14.37548535896494
1 25118U 97084G   15040.46357940  .00001526  00000-0  55138-3 0  9992,2 25118 045.0174 339.8215 0004361 321.7572 139.2426 14.37553080896693
1 25118U 97084G   15042.12940009  .00001247  00000-0  45922-3 0  9991,2 25118 045.0172 331.9315 0004209 329.7245 120.5831 14.37558182896939
1 25118U 97084G   15043.25571194  .00001432  00000-0  52031-3 0  9996,2 25118 045.0172 326.5968 0004107 335.3319 189.5309 14.37560186897095
1 25118U 97084G   15045.04652730  .00000596  00000-0  24383-3 0  9990,2 25118 045.0167 318.1193 0003740 345.7865 095.9238 14.37566331897357
1 25118U 97084G   15047.21144970  .00000785  00000-0  30657-3 0  9994,2 25118 045.0163 307.8649 0003551 357.9547 138.6143 14.37570468897666
1 25118U 97084G   15050.20294147  .00000726  00000-0  28686-3 0  9993,2 25118 045.0158 293.6952 0003314 015.9933 137.3424 14.37578740898093
1 25118U 97084G   15052.00742522  .00000762  00000-0  29892-3 0  9998,2 25118 045.0157 285.1475 0003182 027.9266 113.1827 14.37580700898350
1 25118U 97084G   15053.05128703  .00000828  00000-0  32045-3 0  9990,2 25118 045.0156 280.2030 0003123 034.4248 114.2156 14.37582230898504
1 25118U 97084G   15054.16368976  .00000848  00000-0  32718-3 0  9990,2 25118 045.0155 274.9336 0003059 041.7899 109.4497 14.37584764898668
1 25118U 97084G   15055.54135840  .00000866  00000-0  33299-3 0  9990,2 25118 045.0154 268.4076 0002989 052.0689 035.9447 14.37588127898866
1 25118U 97084G   15057.01418264  .00000745  00000-0  29319-3 0  9992,2 25118 045.0156 261.4300 0002959 061.9330 095.8067 14.37590685899079
1 25118U 97084G   15058.59026179  .00000805  00000-0  31281-3 0  9994,2 25118 045.0162 253.9566 0003073 064.6770 337.7026 14.37593444899295
1 25118U 97084G   15059.93054925  .00000825  00000-0  31939-3 0  9995,2 25118 045.0162 247.6076 0003023 073.8370 071.7094 14.37596016899494
1 25118U 97084G   15061.57993617  .00001179  00000-0  43626-3 0  9997,2 25118 045.0162 239.7944 0002982 084.6455 325.3359 14.37601323899723
1 25118U 97084G   15063.52459083  .00001208  00000-0  44580-3 0  9991,2 25118 045.0164 230.5827 0002977 097.3493 306.6927 14.37605904900007
1 25118U 97084G   15064.86713655  .00001049  00000-0  39332-3 0  9999,2 25118 045.0164 224.2230 0002980 107.1828 051.7852 14.37608419900202
1 25118U 97084G   15066.52438104  .00001206  00000-0  44510-3 0  9996,2 25118 045.0163 216.3724 0002996 118.6222 345.5644 14.37613685900443
1 25118U 97084G   15067.85577869  .00001287  00000-0  47184-3 0  9994,2 25118 045.0162 210.0654 0003032 127.3653 034.0382 14.37617812900638
1 25118U 97084G   15069.50035770  .00001184  00000-0  43779-3 0  9990,2 25118 045.0163 202.2747 0003102 137.5887 263.4681 14.37621717900869
1 25118U 97084G   15070.77223604  .00001093  00000-0  40765-3 0  9997,2 25118 045.0164 196.2498 0003155 145.9119 004.0592 14.37624618901059
1 25118U 97084G   15072.48937424  .00001106  00000-0  41188-3 0  9994,2 25118 045.0166 188.1157 0003247 156.4137 249.1447 14.37629062901297
1 25118U 97084G   15073.76246494  .00001060  00000-0  39673-3 0  9991,2 25118 045.0166 182.0851 0003338 163.9362 356.8492 14.37631863901484
1 25118U 97084G   15075.27933663  .00000883  00000-0  33843-3 0  9995,2 25118 045.0166 174.8995 0003452 172.5363 286.3937 14.37634275901702
1 25118U 97084G   15076.45254866  .00000803  00000-0  31187-3 0  9998,2 25118 045.0165 169.3419 0003549 178.9454 237.8162 14.37636470901877
1 25118U 97084G   15077.65118084  .00001355  00000-0  49383-3 0  9992,2 25118 045.0166 163.6638 0003628 185.0487 321.2674 14.37643342902043
1 25118U 97084G   15078.69151034  .00001345  00000-0  49069-3 0  9999,2 25118 045.0167 158.7358 0003681 191.1007 304.6823 14.37646406902194
1 25118U 97084G   15080.19957477  .00001083  00000-0  40431-3 0  9995,2 25118 045.0166 151.5913 0003836 198.1790 190.1987 14.37648949902406
1 25118U 97084G   15081.46031444  .00000971  00000-0  36739-3 0  9994,2 25118 045.0166 145.6190 0003929 204.6531 235.0639 14.37652038902593
1 25118U 97084G   15082.51298348  .00000900  00000-0  34364-3 0  9993,2 25118 045.0167 140.6322 0004002 209.8154 283.3285 14.37654525902740
1 25118U 97084G   15083.62522800  .00000938  00000-0  35636-3 0  9993,2 25118 045.0166 135.3630 0004071 215.0564 280.1595 14.37657466902906
1 25118U 97084G   15085.20688582  .00001156  00000-0  42828-3 0  9993,2 25118 045.0164 127.8699 0004175 222.3398 186.7941 14.37661887903130
1 25118U 97084G   15086.54847198  .00001269  00000-0  46523-3 0  9992,2 25118 045.0162 121.5141 0004240 228.3819 290.9769 14.37665593903323
1 25118U 97084G   15088.12406692  .00001383  00000-0  50287-3 0  9997,2 25118 045.0162 114.0495 0004315 235.3937 166.5230 14.37670369903546
1 25118U 97084G   15089.17962838  .00001513  00000-0  54559-3 0  9993,2 25118 045.0162 109.0487 0004345 240.0641 230.3273 14.37673856903708
1 25118U 97084G   15090.43694618  .00001452  00000-0  52553-3 0  9996,2 25118 045.0163 103.0921 0004384 245.5984 258.5101 14.37677069903880
1 25118U 97084G   15091.48210619  .00001510  00000-0  54462-3 0  9993,2 25118 045.0163 098.1407 0004400 250.1643 268.5616 14.37680546904030
1 25118U 97084G   15093.14277397  .00001648  00000-0  59017-3 0  9997,2 25118 045.0164 090.2731 0004418 257.0608 225.0476 14.37686754904275
1 25118U 97084G   15094.39969576  .00001395  00000-0  50663-3 0  9999,2 25118 045.0165 084.3184 0004412 262.2046 251.6267 14.37689392904454
1 25118U 97084G   15095.43467823  .00001319  00000-0  48144-3 0  9990,2 25118 045.0167 079.4151 0004422 266.6604 209.1093 14.37692251904604
1 25118U 97084G   15096.74388954  .00001234  00000-0  45365-3 0  9990,2 25118 045.0169 073.2125 0004420 272.0059 146.4149 14.37695687904793
1 25118U 97084G   15098.13463431  .00001185  00000-0  43733-3 0  9991,2 25118 045.0170 066.6235 0004385 277.6979 145.7942 14.37699455904997
1 25118U 97084G   15099.18015988  .00001014  00000-0  38102-3 0  9992,2 25118 045.0171 061.6701 0004344 282.0364 158.0489 14.37701291905147
1 25118U 97084G   15100.37319420  .00001011  00000-0  38012-3 0  9991,2 25118 045.0173 056.0178 0004295 286.9111 213.9875 14.37704517905316
